NORAD_CAT_ID,OBJECT_NAME,OBJECT_TYPE,EPOCH,MEAN_MOTION,ECCENTRICITY,INCLINATION,RA_OF_ASC_NODE,ARG_OF_PERICENTER,MEAN_ANOMALY,BSTAR,MEAN_MOTION_DOT,MEAN_MOTION_DDOT,TLE_LINE0,TLE_LINE1,TLE_LINE2,SEMIMAJOR_AXIS,PERIOD,APOGEE,PERIGEE,DECAYED
56816.0,STARLINK-6067,PAYLOAD,2023-09-17 16:50:44,15.69922428,0.0002997,69.9961,105.6175,237.2854,122.8053,1.5538e-05,1.656e-05,0.0,0 STARLINK-6067,1 56816U 23078BB  23260.70190103  .00001656  00000-0  15538-4 0  9994,2 56816  69.9961 105.6175 0002997 237.2854 122.8053 15.69922428 17480,6737.256,91.724,361.14,357.102,0.0
56816.0,STARLINK-6067,PAYLOAD,2023-09-18 00:29:30,15.6991571,0.0003326,69.9972,104.722,271.8043,88.2772,9.6205e-06,9.44e-06,0.0,0 STARLINK-6067,1 56816U 23078BB  23261.02049413  .00000944  00000-0  96205-5 0  9997,2 56816  69.9972 104.7220 0003326 271.8043  88.2772 15.69915710 17539,6737.275,91.725,361.381,356.899,0.0
56816.0,STARLINK-6067,PAYLOAD,2023-09-18 14:15:16,15.69926934,0.0003581,69.9962,103.1106,268.1614,91.9172,-8.5004e-07,-3.15e-06,0.0,0 STARLINK-6067,1 56816U 23078BB  23261.59394075 -.00000315  00000-0 -85004-6 0  9996,2 56816  69.9962 103.1106 0003581 268.1614  91.9172 15.69926934 17366,6737.243,91.724,361.521,356.695,0.0
56816.0,STARLINK-6067,PAYLOAD,2023-09-18 17:18:46,15.6992456,0.0003362,69.9979,102.7508,270.9529,89.1281,1.1422e-05,1.161e-05,0.0,0 STARLINK-6067,1 56816U 23078BB  23261.72137304  .00001161  00000-0  11422-4 0  9990,2 56816  69.9979 102.7508 0003362 270.9529  89.1281 15.69924560 17642,6737.25,91.724,361.38,356.85,0.0
56816.0,STARLINK-6067,PAYLOAD,2023-09-18 20:22:16,15.69936892,0.0003515,69.9975,102.3935,270.9159,89.1634,2.0554e-05,2.261e-05,0.0,0 STARLINK-6067,1 56816U 23078BB  23261.84879683  .00002261  00000-0  20554-4 0  9994,2 56816  69.9975 102.3935 0003515 270.9159  89.1634 15.69936892 17404,6737.215,91.723,361.448,356.711,0.0
56816.0,STARLINK-6067,PAYLOAD,2023-09-19 19:18:34,15.69907186,0.0003533,69.9977,99.7074,265.7673,94.3119,-1.5748e-05,-2.105e-05,0.0,0 STARLINK-6067,1 56816U 23078BB  23262.80457128 -.00002105  00000-0 -15748-4 0  9995,2 56816  69.9977  99.7074 0003533 265.7673  94.3119 15.69907186 17817,6737.3,91.725,361.545,356.784,0.0
56816.0,STARLINK-6067,PAYLOAD,2023-09-19 22:22:04,15.69909581,0.000344,69.9973,99.3477,265.3643,94.716,2.0505e-06,3.4e-07,0.0,0 STARLINK-6067,1 56816U 23078BB  23262.93200188  .00000034  00000-0  20505-5 0  9996,2 56816  69.9973  99.3477 0003440 265.3643  94.7160 15.69909581 17839,6737.293,91.725,361.475,356.84,0.0
56816.0,STARLINK-6067,PAYLOAD,2023-09-20 13:39:35,15.69932086,0.0003631,69.9975,97.5562,265.5076,94.5705,1.0037e-06,-9.2e-07,0.0,0 STARLINK-6067,1 56816U 23078BB  23263.56915822 -.00000092  00000-0  10037-5 0  9998,2 56816  69.9975  97.5562 0003631 265.5076  94.5705 15.69932086 17671,6737.228,91.724,361.54,356.647,0.0
56816.0,STARLINK-6067,PAYLOAD,2023-09-20 16:43:05,15.69929671,0.0003638,69.999,97.1979,265.3518,94.7262,5.1092e-06,4.02e-06,0.0,0 STARLINK-6067,1 56816U 23078BB  23263.69659092  .00000402  00000-0  51092-5 0  9996,2 56816  69.9990  97.1979 0003638 265.3518  94.7262 15.69929671 17959,6737.235,91.724,361.551,356.649,0.0
56816.0,STARLINK-6067,PAYLOAD,2023-09-20 21:18:20,15.69934153,0.0003592,69.999,96.66,266.1197,93.9588,1.6326e-05,1.751e-05,0.0,0 STARLINK-6067,1 56816U 23078BB  23263.88773916  .00001751  00000-0  16326-4 0  9997,2 56816  69.9990  96.6600 0003592 266.1197  93.9588 15.69934153 17723,6737.222,91.724,361.507,356.667,0.0
56816.0,STARLINK-6067,PAYLOAD,2023-09-21 06:28:51,15.69922256,0.000348,69.9989,95.5852,266.6725,93.4072,1.8042e-05,1.957e-05,0.0,0 STARLINK-6067,1 56816U 23078BB  23264.27004598  .00001957  00000-0  18042-4 0  9999,2 56816  69.9989  95.5852 0003480 266.6725  93.4072 15.69922256 18046,6737.256,91.724,361.466,356.777,0.0
56816.0,STARLINK-6067,PAYLOAD,2023-09-21 17:11:08,15.6991367,0.0003503,69.997,94.3312,261.0631,99.0168,1.6213e-05,1.736e-05,0.0,0 STARLINK-6067,1 56816U 23078BB  23264.71606714  .00001736  00000-0  16213-4 0  9999,2 56816  69.9970  94.3312 0003503 261.0631  99.0168 15.69913670 18111,6737.281,91.725,361.506,356.786,0.0
56816.0,STARLINK-6067,PAYLOAD,2023-09-21 21:46:22,15.69922006,0.0003586,69.9969,93.7936,260.1282,99.9509,2.794e-05,3.148e-05,0.0,0 STARLINK-6067,1 56816U 23078BB  23264.90721034  .00003148  00000-0  27940-4 0  9991,2 56816  69.9969  93.7936 0003586 260.1282  99.9509 15.69922006 17881,6737.257,91.724,361.538,356.706,0.0
56816.0,STARLINK-6067,PAYLOAD,2023-09-21 23:18:07,15.69923948,0.0003585,69.9972,93.6143,258.9303,101.149,2.7358e-05,3.078e-05,0.0,0 STARLINK-6067,1 56816U 23078BB  23264.97092588  .00003078  00000-0  27358-4 0  9998,2 56816  69.9972  93.6143 0003585 258.9303 101.1490 15.69923948 18154,6737.252,91.724,361.532,356.701,0.0
56816.0,STARLINK-6067,PAYLOAD,2023-09-22 13:00:57,15.72471568,0.0013116,69.9953,91.9941,220.8026,139.219,0.00274,0.00384875,0.0,0 STARLINK-6067,1 56816U 23078BB  23265.54233276  .00384875  00000-0  27400-2 0  9996,2 56816  69.9953  91.9941 0013116 220.8026 139.2190 15.72471568 17980,6729.973,91.576,360.665,343.011,0.0
56816.0,STARLINK-6067,PAYLOAD,2023-09-22 20:00:01,15.69800871,0.0003477,69.9999,91.1899,273.4278,279.2193,0.0027424,0.00341588,0.0,0 STARLINK-6067,1 56816U 23078BB  23265.83334491  .00341588  00000-0  27424-2 0  9999,2 56816  69.9999  91.1899 0003477 273.4278 279.2193 15.69800871 18287,6737.604,91.731,361.811,357.126,0.0
56816.0,STARLINK-6067,PAYLOAD,2023-09-22 22:00:00,15.69894086,0.0003496,69.9999,90.9556,276.724,26.7208,0.0018816,0.00232119,0.0,0 STARLINK-6067,1 56816U 23078BB  23265.91667824  .00232119  00000-0  18816-2 0  9991,2 56816  69.9999  90.9556 0003496 276.7240  26.7208 15.69894086  5863,6737.337,91.726,361.557,356.847,0.0
56816.0,STARLINK-6067,PAYLOAD,2023-09-22 22:14:29,15.69878763,0.0003621,69.9975,90.9278,267.2408,92.8373,-4.3629e-05,-5.446e-05,0.0,0 STARLINK-6067,1 56816U 23078BB  23265.92672591 -.00005446  00000-0 -43629-4 0  9994,2 56816  69.9975  90.9278 0003621 267.2408  92.8373 15.69878763 18303,6737.381,91.727,361.685,356.806,0.0
56816.0,STARLINK-6067,PAYLOAD,2023-09-23 13:31:54,15.69955948,0.0003633,69.997,89.1349,268.2829,91.7951,5.1029e-05,5.935e-05,0.0,0 STARLINK-6067,1 56816U 23078BB  23266.56382639  .00005935  00000-0  51029-4 0  9990,2 56816  69.9970  89.1349 0003633 268.2829  91.7951 15.69955948 18141,6737.16,91.722,361.473,356.577,0.0
56816.0,STARLINK-6067,PAYLOAD,2023-09-23 15:03:42,15.69912186,0.0004071,69.9969,88.9566,280.0669,80.0067,1.4806e-06,-3.5e-07,0.0,0 STARLINK-6067,1 56816U 23078BB  23266.62757550 -.00000035  00000-0  14806-5 0  9995,2 56816  69.9969  88.9566 0004071 280.0669  80.0067 15.69912186 18414,6737.285,91.725,361.893,356.407,0.0
56816.0,STARLINK-6067,PAYLOAD,2023-09-23 22:42:27,15.69922725,0.0003365,69.997,88.0612,266.3237,93.7574,9.0515e-06,8.76e-06,0.0,0 STARLINK-6067,1 56816U 23078BB  23266.94615109  .00000876  00000-0  90515-5 0  9996,2 56816  69.9970  88.0612 0003365 266.3237  93.7574 15.69922725 18461,6737.255,91.724,361.387,356.853,0.0
56816.0,STARLINK-6067,PAYLOAD,2023-09-24 13:59:58,15.69910176,0.0003166,69.9974,86.2704,260.5441,99.5397,4.8621e-05,5.634e-05,0.0,0 STARLINK-6067,1 56816U 23078BB  23267.58332062  .00005634  00000-0  48621-4 0  9998,2 56816  69.9974  86.2704 0003166 260.5441  99.5397 15.69910176 18306,6737.291,91.725,361.289,357.023,0.0
56816.0,STARLINK-6067,PAYLOAD,2023-09-24 21:38:44,15.69910288,0.0003309,69.9977,85.3743,266.0498,94.0319,4.5996e-05,5.318e-05,0.0,0 STARLINK-6067,1 56816U 23078BB  23267.90190729  .00005318  00000-0  45996-4 0  9997,2 56816  69.9977  85.3743 0003309 266.0498  94.0319 15.69910288 18357,6737.291,91.725,361.385,356.926,0.0
56816.0,STARLINK-6067,PAYLOAD,2023-09-25 12:56:13,15.69952405,0.0002598,69.9973,83.583,242.9435,117.1496,4.5875e-05,5.313e-05,0.0,0 STARLINK-6067,1 56816U 23078BB  23268.53904147  .00005313  00000-0  45875-4 0  9995,2 56816  69.9973  83.5830 0002598 242.9435 117.1496 15.69952405 18454,6737.17,91.723,360.785,357.285,0.0
56816.0,STARLINK-6067,PAYLOAD,2023-09-25 14:28:02,15.69896458,0.0002707,69.9972,83.4037,258.916,101.1731,-1.684e-05,-2.234e-05,0.0,0 STARLINK-6067,1 56816U 23078BB  23268.60280296 -.00002234  00000-0 -16840-4 0  9996,2 56816  69.9972  83.4037 0002707 258.9160 101.1731 15.69896458 18725,6737.33,91.726,361.019,357.371,0.0
56816.0,STARLINK-6067,PAYLOAD,2023-09-25 20:35:01,15.69908649,0.0003601,69.997,82.6849,269.3101,90.7682,7.5768e-06,6.98e-06,0.0,0 STARLINK-6067,1 56816U 23078BB  23268.85765988  .00000698  00000-0  75768-5 0  9994,2 56816  69.9970  82.6849 0003601 269.3101  90.7682 15.69908649 18500,6737.295,91.725,361.586,356.734,0.0
56816.0,STARLINK-6067,PAYLOAD,2023-09-25 22:06:46,15.69912309,0.0003512,69.9994,82.5075,263.4837,96.5959,-1.9713e-06,-4.5e-06,0.0,0 STARLINK-6067,1 56816U 23078BB  23268.92137083 -.00000450  00000-0 -19713-5 0  9997,2 56816  69.9994  82.5075 0003512 263.4837  96.5959 15.69912309 18776,6737.285,91.725,361.516,356.784,0.0
56816.0,STARLINK-6067,PAYLOAD,2023-09-26 14:56:02,15.69927768,0.0003633,69.9984,80.5376,262.0685,98.0099,9.7804e-06,9.63e-06,0.0,0 STARLINK-6067,1 56816U 23078BB  23269.62224834  .00000963  00000-0  97804-5 0  9990,2 56816  69.9984  80.5376 0003633 262.0685  98.0099 15.69927768 18628,6737.241,91.724,361.553,356.658,0.0
56816.0,STARLINK-6067,PAYLOAD,2023-09-26 21:03:02,15.69930399,0.0003061,69.9978,79.8164,264.0935,95.9912,2.4773e-05,2.768e-05,0.0,0 STARLINK-6067,1 56816U 23078BB  23269.87711535  .00002768  00000-0  24773-4 0  9995,2 56816  69.9978  79.8164 0003061 264.0935  95.9912 15.69930399 18660,6737.233,91.724,361.16,357.036,0.0
56816.0,STARLINK-6067,PAYLOAD,2023-09-27 12:20:34,15.69920554,0.0003136,69.9984,78.0286,262.9598,97.1242,-2.0702e-05,-2.701e-05,0.0,0 STARLINK-6067,1 56816U 23078BB  23270.51428772 -.00002701  00000-0 -20702-4 0  9993,2 56816  69.9984  78.0286 0003136 262.9598  97.1242 15.69920554 18761,6737.261,91.724,361.239,357.013,0.0
